QIANFAN-41              
1 62242U 24232F   25281.14091844  .00000132  00000+0  18511-3 0  9992
2 62242  89.0010  47.8030 0014390  28.1480 332.0446 13.50975593 90398
QIANFAN-42              
1 62243U 24232G   25281.16104579  .00000677  00000+0  28654-3 0  9998
2 62243  89.0008  44.8326 0013006 302.6487  57.3450 14.24381990 92030
QIANFAN-43              
1 62244U 24232H   25281.13684256  .00000138  00000+0  19443-3 0  9999
2 62244  89.0014  47.8658 0016050  32.5638 327.6499 13.50976718 59000
QIANFAN-44              
1 62245U 24232J   25281.19850338  .00000127  00000+0  17861-3 0  9992
2 62245  89.0013  47.6713 0014188  30.3523 329.8447 13.50977940 90481
QIANFAN-45              
1 62246U 24232K   25281.16563259  .00000140  00000+0  19883-3 0  9994
2 62246  89.0017  47.8188 0014819  29.7994 330.3997 13.50974642 90404
QIANFAN-46              
1 62247U 24232L   25281.19029653  .00000105  00000+0  14417-3 0  9992
2 62247  89.0012  47.8881 0015059  34.9776 325.2362 13.50975171 90365
QIANFAN-47              
1 62248U 24232M   25281.19443681  .00000110  00000+0  15096-3 0  9994
2 62248  89.0008  47.8232 0015451  33.9569 326.2568 13.50976915 90395
QIANFAN-48              
1 62249U 24232N   25281.15744809  .00000135  00000+0  18961-3 0  9998
2 62249  89.0012  47.8262 0017769  35.7384 324.4953 13.50972799 90397
